IRIDIUM 150             
1 43257U 18030J   25115.93239991  .00000084  00000+0  22862-4 0  9997
2 43257  86.3922 104.9173 0002322  96.2083 263.9377 14.34217709370358
IRIDIUM 143             
1 43258U 18030K   25115.91337190  .00000087  00000+0  24084-4 0  9997
2 43258  86.3924 105.0019 0002438 100.7843 259.3627 14.34217734370316
IRIDIUM 161             
1 43478U 18047C   25115.79734913  .00000751  00000+0  21728-3 0  9998
2 43478  86.4456 262.8382 0002128  89.5693 270.5752 14.43274607364936
IRIDIUM 152             
1 43479U 18047D   25115.95584914  .00000560  00000+0  19292-3 0  9992
2 43479  86.3931 262.6323 0002069  92.0454 268.0979 14.34223156362692
IRIDIUM 147             
1 43480U 18047E   25115.82266519  .00000443  00000+0  15125-3 0  9999
2 43480  86.3931 262.6851 0002217  87.0709 273.0740 14.34219276362669
IRIDIUM 110             
1 43481U 18047F   25115.82900675  .00000150  00000+0  46571-4 0  9993
2 43481  86.3934 262.7640 0002045  82.0033 278.1394 14.34216102362659
IRIDIUM 162             
1 43482U 18047G   25115.65237883  .00000769  00000+0  22251-3 0  9993
2 43482  86.4454 262.7948 0001874  91.2824 268.8591 14.43276525364908
IRIDIUM 160             
1 43569U 18061A   25115.84461076  .00000119  00000+0  35452-4 0  9996
2 43569  86.3997 231.1306 0002128  87.7614 272.3825 14.34218637353552
